Subject:
MAJOR BODY #C(500@0)_T(501) (1/1)
From:
Horizons Ephemeris System <horizons@ssd.jpl.nasa.gov>
Date:
Fri, 24 Sep 2004 13:02:20 -0700 (PDT)

 Automated mail xmit by PORT_LOGIN, PID=   16757 Fri Sep 24 13:02:20 2004
++++++++++++++++++++++++++++++++ (part 1 of 1)  +++++++++++++++++++++++++++++++

*******************************************************************************
Ephemeris / PORT_LOGIN Fri Sep 24 13:02:15 2004  Pasadena, USA   / Horizons    
*******************************************************************************
Target body name: Io (501)                        {source: JUP230}
Center body name: Solar System Barycenter (0)     {source: DE-0406LE-0406}
Center-site name: BODYCENTRIC
*******************************************************************************
Start time      : A.D. 1968-Dec-20 00:00:00.0000 CT 
Stop  time      : A.D. 1968-Dec-29 00:00:00.0000 CT 
Step-size       : 60 minutes
*******************************************************************************
Center geodetic : 0.000000,  0.000000,  0.00000   {E-lon(deg),Lat(deg),Alt(km)}
Center cylindric: 0.00000,     0.000,     0.000   {E-lon(deg),Dxy(km),Dz(km)}
Center radii    : (undefined)                                                  
Output units    : AU-D                                                         
Output format   : 03
Reference frame : ICRF/J2000.0                                                 
Output type     : GEOMETRIC cartesian states
Coordinate systm: Ecliptic and Mean Equinox of Reference Epoch                 
*******************************************************************************
JDCT 
   X     Y     Z
   VX    VY    VZ
   LT    RG    RR
*******************************************************************************
$$SOE
2440213.000000000 = A.D. 1968-Dec-22 12:00:00.0000 (CT)
  -5.411440026946310E+00  4.908135190806333E-01  1.191117779913395E-01
   8.028257612143321E-03 -1.193226379124403E-02  6.006525749469725E-06
   3.138969967971712E-02  5.434958021126313E+00 -9.070950563255568E-03
2440213.041666667 = A.D. 1968-Dec-22 13:00:00.0000 (CT)
  -5.411092300041438E+00  4.903441582731957E-01  1.191132311367883E-01
   8.629224117775686E-03 -1.058251952506684E-02  6.377018869693783E-05
   3.138745554811128E-02  5.434569461783724E+00 -9.545376004395431E-03
2440213.083333333 = A.D. 1968-Dec-22 14:00:00.0000 (CT)
  -5.410723785700865E+00  4.899326437522578E-01  1.191170855814869E-01
   9.024366805552761E-03 -9.160726543676645E-03  1.210598526408153E-04
   3.138512250153860E-02  5.434165507291861E+00 -9.808695508367842E-03
2440213.125000000 = A.D. 1968-Dec-22 15:00:00.0000 (CT)
  -5.410343239120295E+00  4.895813340626546E-01  1.191232956345340E-01
   9.205849621631075E-03 -7.697939682536814E-03  1.766357480455491E-04
   3.138275203818491E-02  5.433755074285195E+00 -9.855897381364954E-03
2440213.166666667 = A.D. 1968-Dec-22 16:00:00.0000 (CT)
  -5.409959645776131E+00  4.892912775502650E-01  1.191317647998384E-01
   9.170464110098040E-03 -6.225881095078743E-03  2.293031985300357E-04
   3.138039630220261E-02  5.433347191243837E+00 -9.686624273460448E-03
2440213.208333333 = A.D. 1968-Dec-22 17:00:00.0000 (CT)
  -5.409582028153274E+00  4.890621985646669E-01  1.191423481681947E-01
   8.919635500844739E-03 -4.776269808824283E-03  2.779369487058739E-04
   3.137810696775881E-02  5.432950805272474E+00 -9.305123618442620E-03
2440213.250000000 = A.D. 1968-Dec-22 18:00:00.0000 (CT)
  -5.409219254152946E+00  4.888925112737408E-01  1.191548557824054E-01
   8.459336957381415E-03 -3.380168732603638E-03  3.215034871527718E-04
   3.137593414593973E-02  5.432574592836718E+00 -8.720108305234517E-03
2440213.291666667 = A.D. 1968-Dec-22 19:00:00.0000 (CT)
  -5.408879850877866E+00  4.887793601338008E-01  1.191690568855539E-01
   7.799918350294532E-03 -2.067359815231833E-03  3.590810725884461E-04
   3.137392533530621E-02  5.432226778057444E+00 -7.944534427872844E-03
2440213.333333333 = A.D. 1968-Dec-22 20:00:00.0000 (CT)
  -5.408571827210473E+00  4.887186856504158E-01  1.191846849519698E-01
   6.955856632893474E-03 -8.657562838317696E-04  3.898772463509337E-04
   3.137212443516707E-02  5.431914961864352E+00 -6.995303564563280E-03
2440213.375000000 = A.D. 1968-Dec-22 21:00:00.0000 (CT)
  -5.408302508297711E+00  4.887053137261627E-01  1.192014433927047E-01
   5.945435182304878E-03  1.991406425024357E-04  4.132436742715929E-04
   3.137057083880858E-02  5.431645964993521E+00 -5.892897269640666E-03
2440213.416666667 = A.D. 1968-Dec-22 22:00:00.0000 (CT)
  -5.408078384749013E+00  4.887330666081836E-01  1.192190118216975E-01
   4.790359429273272E-03  1.104734269668784E-03  4.286882001718147E-04
   3.136929862206993E-02  5.431425687493614E+00 -4.660951431576533E-03
2440213.458333333 = A.D. 1968-Dec-22 23:00:00.0000 (CT)
  -5.407904979053484E+00  4.887948931984907E-01  1.192370527642631E-01
   3.515315864882009E-03  1.831768349897332E-03  4.358840058775282E-04
   3.136833584083009E-02  5.431258987089485E+00 -3.325777995933958E-03
2440213.500000000 = A.D. 1968-Dec-23 00:00:00.0000 (CT)
  -5.407786731432625E+00  4.888830162425883E-01  1.192552186848785E-01
   2.147481248215930E-03  2.364700200184928E-03  4.346757531414833E-04
   3.136770394918206E-02  5.431149578442191E+00 -1.915841449668420E-03
2440213.541666667 = A.D. 1968-Dec-23 01:00:00.0000 (CT)
  -5.407726907068690E+00  4.889890937634692E-01  1.192731592100936E-01
   7.159883022504335E-04  2.692012593158201E-03  4.250828711534735E-04
   3.136741734838047E-02  5.431099955051672E+00 -4.611963419305953E-04
2440213.583333333 = A.D. 1968-Dec-23 02:00:00.0000 (CT)
  -5.407727526385777E+00  4.891043920053796E-01  1.192905284229222E-01
  -7.486448672360488E-04  2.806451987598971E-03  4.072996302522463E-04
   3.136748307503076E-02  5.431111335268391E+00  1.007105562673140E-03
2440213.625000000 = A.D. 1968-Dec-23 03:00:00.0000 (CT)
  -5.407789319729359E+00  4.892199669105635E-01  1.193069921004983E-01
  -2.215114912836691E-03  2.705196958096503E-03  3.816922540534680E-04
   3.136790063488241E-02  5.431183633515531E+00  2.457631814602688E-03
2440213.666666667 = A.D. 1968-Dec-23 04:00:00.0000 (CT)
  -5.407911707557979E+00  4.893268507749183E-01  1.193222347574281E-01
  -3.651955622687522E-03  2.389942793331431E-03  3.487926681583529E-04
   3.136866198696631E-02  5.431315457542441E+00  3.859200525635275E-03
2440213.708333333 = A.D. 1968-Dec-23 05:00:00.0000 (CT)
  -5.408092806866723E+00  4.894162409392596E-01  1.193359663703458E-01
  -5.028173612730158E-03  1.866910501137473E-03  3.092893172626961E-04
   3.136975168056012E-02  5.431504132139479E+00  5.181517775039891E-03
2440213.750000000 = A.D. 1968-Dec-23 06:00:00.0000 (CT)
  -5.408329464228845E+00  4.894796870156965E-01  1.193479286513733E-01
  -6.313888525186330E-03  1.146767501400501E-03  2.640147225692464E-04
   3.137114714526218E-02  5.431745749362742E+00  6.395810841594494E-03
2440213.791666667 = A.D. 1968-Dec-23 07:00:00.0000 (CT)
  -5.408617315416394E+00  4.895092729605121E-01  1.193579007377358E-01
  -7.480966718700792E-03  2.444593796110982E-04  2.139299216182388E-04
   3.137281913181529E-02  5.432035244860336E+00  7.475445879842421E-03
2440213.833333333 = A.D. 1968-Dec-23 08:00:00.0000 (CT)
  -5.408950871083279E+00  4.894977902645382E-01  1.193657041704668E-01
  -8.503636485500550E-03 -8.210483690811865E-04  1.601059308333231E-04
   3.137473229847880E-02  5.432366499399552E+00  8.396517756207294E-03
2440213.875000000 = A.D. 1968-Dec-23 09:00:00.0000 (CT)
  -5.409323627471590E+00  4.894388985013012E-01  1.193712070418408E-01
  -9.359071666567841E-03 -2.027118817121230E-03  1.037024195139095E-04
   3.137684593467256E-02  5.432732464161951E+00  9.138398790419954E-03
2440213.916666667 = A.D. 1968-Dec-23 10:00:00.0000 (CT)
  -5.409728200532039E+00  4.893272695002190E-01  1.193743272006780E-01
  -1.002792947733771E-02 -3.347880652192972E-03  4.594386716663789E-05
   3.137911481032978E-02  5.433125307804226E+00  9.684232394015316E-03
2440213.958333333 = A.D. 1968-Dec-23 11:00:00.0000 (CT)
  -5.410156481242177E+00  4.891587115327523E-01  1.193750344181024E-01
  -1.049482766530347E-02 -4.754749557924743E-03 -1.190642010170953E-05
   3.138149013597535E-02  5.433536582690636E+00  1.002135728499551E-02
2440214.000000000 = A.D. 1968-Dec-23 12:00:00.0000 (CT)
  -5.410599809281302E+00  4.889302701382640E-01  1.193733514343201E-01
  -1.074874600002964E-02 -6.217026644685392E-03 -6.857394650587018E-05
   3.138392061512322E-02  5.433957407109942E+00  1.014164825197354E-02
2440214.041666667 = A.D. 1968-Dec-23 13:00:00.0000 (CT)
  -5.411049161605729E+00  4.886403025873310E-01  1.193693538295908E-01
  -1.078333768970678E-02 -7.702563390868575E-03 -1.228017203530260E-04
   3.138635356731602E-02  5.434378659723704E+00  1.004176045030215E-02
2440214.083333333 = A.D. 1968-Dec-23 14:00:00.0000 (CT)
  -5.411495351893968E+00  4.882885234872636E-01  1.193631686894874E-01
  -1.059713771220038E-02 -9.178479319435892E-03 -1.733793120853337E-04
   3.138873609719656E-02  5.434791181984731E+00  9.723265988452037E-03
2440214.125000000 = A.D. 1968-Dec-23 15:00:00.0000 (CT)
  -5.411929236332660E+00  4.878760196722151E-01  1.193549720650402E-01
  -1.019365726960013E-02 -1.061191563563738E-02 -2.191715088377325E-04
   3.139101628258563E-02  5.435185983846372E+00  9.192674101727525E-03
2440214.166666667 = A.D. 1968-Dec-23 16:00:00.0000 (CT)
  -5.412341920824674E+00  4.874052332744093E-01  1.193449852614551E-01
  -9.581356592010764E-03 -1.197080548928608E-02 -2.591457502509840E-04
   3.139314435282344E-02  5.435554447786027E+00  8.461329455049524E-03
2440214.208333333 = A.D. 1968-Dec-23 17:00:00.0000 (CT)
  -5.412724964452144E+00  4.868799127216415E-01  1.193334700234821E-01
  -8.773492038574022E-03 -1.322463958203724E-02 -2.923975157282964E-04
   3.139507382777038E-02  5.435888526016988E+00  7.545186957137393E-03
